#dP2021  9 14  0  0  0.00000000      96 __u+U ITR00 FIT  IAC
## 2175 172800.00000000   900.00000000 59471 0.0000000000000
+  114   C06C07C08C09C10C11C12C13C14C16C19C20C21C22C23C24C25
+        C26C27C28C29C30C32C33C34C35C36C37C38C39C40C41C42C43
+        C44C45C46E01E02E03E04E05E07E08E09E11E12E13E14E15E18
+        E19E21E24E25E26E27E30E31E33E36G01G02G03G04G05G06G07
+        G08G09G10G11G12G13G14G15G16G17G18G19G20G21G22G23G24
+        G25G26G27G28G29G30G31G32R01R02R03R04R05R07R08R09R11
+        R12R13R14R15R16R17R18R19R20R21R22R24  0  0  0  0  0
++         7  8  8  9  8  7  6  8  8  9  8  8  6  6  5  6  6
++         6  7  7  6  7  6  7  7  6  8  8  9  8  9  6  6  7
++         8  8  8  7  6  5  7  7  6  6  6  7  7  6  8  6  7
++         5  6  6  7  7  5  7  8  7  6  5  6  6  5  6  6  6
++         9  6  5  6  7  6  6  7  7  6  6  6  5  6  5  4  6
++         6  6  6  6  6  5  6  6  8  6  6  6  6  6  6  6  6
++         7  6  7  5  7  6  6  7  7  7  7  6  0  0  0  0  0
%c M  cc GPS ccc cccc cccc cccc cccc ccccc ccccc ccccc ccccc
%c cc cc ccc ccc cccc cccc cccc cccc ccccc ccccc ccccc ccccc
%f  0.0000000  0.000000000  0.00000000000  0.000000000000000
%f  0.0000000  0.000000000  0.00000000000  0.000000000000000
%i    0    0    0    0      0      0      0      0         0
%i    0    0    0    0      0      0      0      0         0
/* INFORMATION & ANALYSIS CENTER (IAC)      ULTRA-RAPID DATA
/* S/V CLOCKS ARE ALIGNED TO GNSS TIME                      
/* G:C1WC2W R:C1PC2P E:C1XC5X C:C2IC6I J:C1CC2S             
/* PCV:IGS14_2163 OL/AL:FES2004  NONE     YN ORB:CoN CLK:CoN
*  2021 09 14  8 30  0.00000000
PC06  -1102.897045  33305.215995  25926.610926    190.311601
PC07 -15227.179246  26322.538403 -29243.192683   -100.942567
PC08 -14882.717900  38851.965107   6317.477883   -943.942042
PC09   6073.067122  37639.269504  18795.774934   -104.986069
PC10  -7396.562526  26973.622965 -31388.973582     -0.251581
PC11  18856.362788  13326.565322  15695.182093    574.258876
PC12  12965.922654  24673.804003   -910.362722    758.519982
PC13  -8415.314524  38881.044299  13612.412132    408.591746
PC14  26249.761222   5367.535881   7717.065195    647.725255
PC16  -2855.246502  31608.060213  27998.142511   -809.975415
PC19 -27831.886081   1235.549226   1786.879680    962.469708
PC20 -21725.567790  -9959.862316 -14423.154513   -802.887067
PC21   2159.279276  15820.631376  22894.232958   -932.904064
PC22 -18073.146418  12064.656626  17517.901759   -951.764291
PC23  16738.804319 -21848.921376  -4598.027610   -962.128362
PC24  10414.536597  13506.456605 -22081.406481   -965.852908
PC25  19377.077840  -7243.282352 -18740.276169   -855.112511
PC26  -3062.001741  24508.629740 -12957.829851    850.299240
PC27  -6388.976432 -25379.651279   9652.628980    597.112243
PC28   8456.052455 -15531.077903  21591.704283    -26.655470
PC29 -18441.388190  -2739.255792 -20773.654690    446.958568
PC30 -17980.446108 -20041.016692  -7313.760541    480.587563
PC32  -2244.644554 -15812.190959 -22876.981769   -945.192795
PC33  27816.325156  -1317.761319  -1676.100882   -969.172114
PC34  18219.801535  19553.645569   8045.753147   -582.397292
PC35  -8271.481217  15515.680239 -21683.076008    -92.913307
PC36 -19471.634813   6331.600881  18992.433231   -758.941921
PC37   4421.270557 -24733.255500  12189.478229   -865.015879
PC38 -18549.203226  37728.262849  -1335.210689    175.388697
PC39  -7063.086050  27181.200248  31486.452717     33.232494
PC40 -20954.593568  20024.904884 -30672.740020    199.323507
PC41  18349.436128 -11981.771199 -17237.472223   -938.072969
PC42  21040.530856  10441.276125  15091.758533   -953.463896
PC43  18686.060398   3397.587876  20442.536031   -913.724313
PC44   7037.316972  25170.617148  -9827.423075    390.295009
PC45 -16618.598220  21954.060176   4480.652621    547.296323
PC46 -11120.365090 -12412.904755  22401.051251     85.969226
PE01  -9953.449615 -13327.625662  24494.663747   -474.295543
PE02  10107.047048  13216.501347 -24473.654866    246.722839
PE03  20027.091334  19133.295776  10416.046457   -474.460763
PE04 -27283.943895  -8417.070385   7811.323516   -856.378105
PE05    881.965907  18801.328927  22842.874279   -249.481626
PE07  18536.689657  -7523.516659 -21811.551139   -585.402864
PE08  27275.396653   8051.861389  -8188.702717   5937.934004
PE09 -18307.677307   7621.999074  21979.509950   5532.211045
PE11 -12820.019214  16965.815911 -20604.596229   5429.629477
PE12 -16017.239320  -5823.774580 -24205.430565   5010.489079
PE13  12886.571606 -16528.558516  20903.789206    421.467583
PE14 -18658.738187  10375.351737 -24384.315055  -1570.233929
PE15  15957.906521   5784.274991  24249.836837    792.410375
PE18   8578.005182 -12624.715872  18294.805840  -1723.388090
PE19 -18206.657699 -19717.494450 -12484.057383    377.219143
PE21   9504.803170 -20800.825697  18801.325879   -687.827202
PE24 -24882.605952  15980.142268  -1017.063187  -1116.960661
PE25  -9740.247966  20816.216717 -18638.375291   -546.602281
PE26   1783.332124 -29238.471146   4307.276152   1345.611950
PE27  24409.991713 -16630.658610   2004.962720   -120.072507
PE30  24413.999987  -1615.958055 -16665.791331   2621.071024
PE31 -24849.368237   2689.041919  15874.062947   -485.582198
PE33  -9617.931582 -24635.624853 -13299.459267   -464.986351
PE36  -2251.097919  29036.835711  -5278.958739   -262.197412
PG01  13196.355641 -15990.267936  16128.245014    568.102257
PG02 -13717.180156  -8397.043995 -20473.199050   -632.236766
PG03  22928.700377 -12577.180174  -4418.767522   -288.876546
PG04  14136.775449  -7497.151495 -21205.778866   -204.309878
PG05 -24838.067871   4511.145459  -8677.914329    -54.370398
PG06  -7032.871257 -20788.304641 -14861.128324     74.177941
PG07   5901.146489 -25390.747824  -3059.703063    244.847252
PG08  21322.409542   2287.196485  15858.280714    -36.433144
PG09   2816.164305 -16337.141828 -20814.710692   -360.925787
PG10   3265.104978  14852.013433  21874.402077   -202.987084
PG11 -12834.494815 -10307.012704 -20861.199359     17.690143
PG12 -23947.169373  10672.480982  -4023.925439    -97.175355
PG13 -21497.151072 -10913.316388  11168.286113    185.274807
PG14  -2852.112213 -15191.938661  21594.435656      1.725777
PG15 -21555.225093    396.345561  15342.851459   -121.217981
PG16  23727.472407   1708.240478 -12525.671042   -390.361340
PG17  -9352.847537 -20777.161815  14072.456345    504.450735
PG18  -5190.743166  25953.826114  -1507.689545    322.509508
PG19 -16272.445053 -20411.664626   5067.933764     52.746210
PG20 -19374.570187  -3573.464946 -17718.779918    519.141778
PG21  15263.372209  -7307.420171  21037.957186    142.629090
PG22  24353.239738  -9553.156228   4087.570341   -513.614476
PG23  -9460.292712  17440.629340  17598.050183     57.698802
PG24 -14483.789173  11649.151431  18562.445325    234.199238
PG25 -16799.541995  16349.190526 -12483.705837    208.026723
PG26  15129.706745   9076.225353 -19987.095868    134.022804
PG27  22954.396351  11311.192218   7611.093308   -192.690240
PG28  -9453.932441 -12737.239126  21824.667942    501.415554
PG29  -6338.597122  13836.183163 -21803.634625   -411.473499
PG30  -1876.396615 -25161.624298   7969.140583   -472.706783
PG31   8593.501182  18946.737051 -16328.262400   -139.686193
PG32  13551.448640  20171.235372  11043.316205     -0.379960
PR01 -24949.733288  -5052.644436  -1731.292628     85.293743
PR02 -18211.495656   4683.142872  17238.594914    493.246760
PR03   -861.263199  10981.257274  23046.123266     42.919438
PR04  16696.558322  10858.618010  15964.756729    104.676651
PR05  25042.595287   4922.435227     -9.943518     78.919142
PR07    220.710556 -11056.272363 -22952.037534    -41.213848
PR08 -16762.706107 -10861.970168 -15799.732040    -60.933752
PR09  17835.300235 -17464.775820  -5037.254607     13.148519
PR11  -3851.190931 -11826.870273  22283.480110     48.493140
PR12 -15819.986852   4104.492531  19611.536647    261.857390
PR13 -17987.706053  17084.112390   5935.979498    -60.618323
PR14  -9533.277565  20286.289026 -12173.827668     68.783655
PR15   4249.620113  11485.535759 -22349.096901    101.481741
PR16  16360.693356  -5583.085107 -18824.620146    -21.400803
PR17   2319.585726  22677.362346 -11390.590461    458.387070
PR18  10210.191246  22772.342921   5391.501037     90.376340
PR19  12412.368209  11974.569003  18784.374887   -159.310961
PR20   7689.627736  -9053.512709  22573.146082    -55.862197
PR21  -3010.303762 -23200.681352  10208.029841   -239.155150
PR22 -10386.093457 -22355.217743  -6406.915239   -133.167849
PR24  -7620.743349  10048.674273 -22154.261711     58.576300
EOF
